ICEYE-X6                
1 46497U 20068M   26169.72101338  .00002536  00000+0  18572-3 0  9996
2 46497  98.0980 163.4656 0008851  86.6400 273.5837 15.04532740313466
NETSAT-4                
1 46504U 20068U   26168.96738356  .00014505  00000+0  32135-3 0  9996
2 46504  97.8602 177.2709 0003746 334.9225  25.1839 15.43886308315894
NETSAT-3                
1 46505U 20068V   26168.97425815  .00015908  00000+0  36637-3 0  9990
2 46505  97.8650 175.4935 0004105 358.6628   1.4606 15.42703106315802
NETSAT-1                
1 46506U 20068W   26169.43948322  .00009731  00000+0  29212-3 0  9994
2 46506  97.8747 170.3121 0004889  28.7816 331.3694 15.34667272315495
NETSAT-2                
1 46507U 20068X   26169.45942465  .00018392  00000+0  37804-3 0  9998
2 46507  97.8610 177.7012 0003288  23.2689 336.8708 15.46044422315939
TIANQI-6                
1 46810U 20076D   26169.66163500  .00002876  00000+0  18885-3 0  9990
2 46810  35.0001  39.4150 0010168 188.1597 171.8949 15.07191024308805
KSM1-C                  
1 46906U 20081B   26169.72936578  .00006740  00000+0  25368-3 0  9990
2 46906  36.8962  49.4211 0003332 257.2660 102.7717 15.26760950309403
KSM1-D                  
1 46907U 20081C   26169.73311083  .00006335  00000+0  25359-3 0  9990
2 46907  36.8968  58.4380 0005184 273.9325  86.0831 15.24739247309333
KSM1-A                  
1 46912U 20081H   26169.66794566  .00007215  00000+0  27772-3 0  9998
2 46912  36.8974  52.2045 0004487 312.6075  47.4295 15.25979211309405
R2                      
1 46913U 20081J   26169.36253071  .00005629  00000+0  22094-3 0  9996
2 46913  36.8985  54.0733 0009138 291.7931  68.1846 15.25440507312168
KSM1-B                  
1 46914U 20081K   26169.73678297  .00004784  00000+0  19371-3 0  9994
2 46914  36.9024  59.0241 0006842 290.5684  69.4331 15.24524812312427
GONETS-M 20             
1 47227U 20091A   26169.69647374 -.00000012  00000+0 -15922-3 0  9990
2 47227  82.5053 301.4972 0021267 174.6281 185.5031 12.42893426251260
GONETS-M 21             
1 47228U 20091B   26169.75083979  .00000052  00000+0  30274-3 0  9992
2 47228  82.4977 300.1695 0014848 187.3887 172.6976 12.42886784251267
GONETS-M 22             
1 47229U 20091C   26169.72393287 -.00000017  00000+0 -19562-3 0  9996
2 47229  82.5035 301.0856 0022203 170.0041 190.1485 12.42892630251210
CUBEL                   
1 47448U 21006AM  26169.39544117  .00015337  00000+0  37002-3 0  9997
2 47448  97.2326 219.9679 0007338 158.0430 202.1133 15.41271823299942
ARKTIKA-M 1             
1 47719U 21016A   26168.49069990 -.00000210  00000+0  00000+0 0  9999
2 47719  63.2922  57.5948 7288528 269.9420  14.6012  2.00622504 38796
STARLINK-2342           
1 47883U 21021Z   26169.75002315  .00147785  00000+0  71936-3 0  9993
2 47883  53.1540 140.2384 0001653 126.8726 199.7686 15.81472431  5950
GRUS-1B                 
1 47934U 21022C   26169.71245135  .00000269  00000+0  26951-4 0  9999
2 47934  97.5400  52.8625 0015350 322.3448  37.6699 14.98887440286124
UNISAT-7                
1 47945U 21022P   26169.45858653  .00011219  00000+0  27811-3 0  9999
2 47945  97.3887  74.3961 0011039  74.9006 285.3461 15.40496251290055
GLOBAL-9                
1 47971U 21023G   26169.54515949  .00016855  00000+0  33668-3 0  9995
2 47971  44.9804 242.8949 0004632 324.7391  35.3192 15.46654442295157
AII-BRAVO               
1 48270U 21034C   26169.61860992  .00003238  00000+0  24189-3 0  9998
2 48270  97.5627 224.4966 0004101 251.9585 108.1194 15.03492272279831
TYVAK-182A              
1 48271U 21034D   26169.12747331  .00003526  00000+0  24494-3 0  9995
2 48271  97.5711 228.0285 0005011 338.7794  21.3225 15.06170060279974
CSS (TIANHE)            
1 48274U 21035A   26169.64064080  .00018460  00000+0  21791-3 0  9999
2 48274  41.4698 313.1563 0007393  89.7145 270.4541 15.60865815293391
TYVAK-0130              
1 48606U 21041BF  26169.02668500  .00005014  00000+0  19608-3 0  9999
2 48606  52.9943  22.1876 0010316 164.5906 195.5407 15.27570050280515
HAIYANG-2D              
1 48621U 21043A   26169.73837688 -.00000053  00000+0  25386-4 0  9991
2 48621  66.0001 300.8369 0011464 268.7437  91.2318 13.83370644256767
2021-050D               
1 48843U 21050D   26169.71507082  .00004565  00000+0  19508-3 0  9994
2 48843  97.3336 245.7160 0003953 253.7148 106.3654 15.23343424279199
TYVAK-0173              
1 48892U 21059P   26169.68326183  .00001334  00000+0  17255-3 0  9992
2 48892  96.0085 245.6680 0009950  35.2090 324.9783 14.81894962268468
MANDRAKE 2 ABLE         
1 48907U 21059AE  26169.07486970  .00017535  00000+0  26270-3 0  9990
2 48907  97.7030 358.9265 0004309   2.7874 357.3403 15.55018626277266
MANDRAKE 2 BAKER        
1 48908U 21059AF  26169.32472868  .00022916  00000+0  28898-3 0  9997
2 48908  97.7003   2.0744 0002781   2.0400 358.0867 15.59611646277476
