OBJECT_NAME,OBJECT_ID,EPOCH,MEAN_MOTION,ECCENTRICITY,INCLINATION,RA_OF_ASC_NODE,ARG_OF_PERICENTER,MEAN_ANOMALY,EPHEMERIS_TYPE,CLASSIFICATION_TYPE,NORAD_CAT_ID,ELEMENT_SET_NO,REV_AT_EPOCH,BSTAR,MEAN_MOTION_DOT,MEAN_MOTION_DDOT
ICEYE-X6,2020-068M,2026-06-18T17:18:15.556032,15.04532740,.0008851,98.0980,163.4656,86.6400,273.5837,0,U,46497,999,31346,.18572E-3,.2536E-4,0
NETSAT-4,2020-068U,2026-06-17T23:13:01.939584,15.43886308,.00037463,97.8602,177.2709,334.9225,25.1839,0,U,46504,999,31589,.32135229E-3,.14505E-3,0
NETSAT-3,2020-068V,2026-06-17T23:22:55.904160,15.42703106,.00041054,97.8650,175.4935,358.6628,1.4606,0,U,46505,999,31580,.36637403E-3,.15908E-3,0
NETSAT-1,2020-068W,2026-06-18T10:32:51.350208,15.34667272,.0004889,97.8747,170.3121,28.7816,331.3694,0,U,46506,999,31549,.29212E-3,.9731E-4,0
NETSAT-2,2020-068X,2026-06-18T11:01:34.289760,15.46044422,.0003288,97.8610,177.7012,23.2689,336.8708,0,U,46507,999,31593,.37804E-3,.18392E-3,0
TIANQI-6,2020-076D,2026-06-18T15:52:45.264000,15.07191024,.0010168,35.0001,39.4150,188.1597,171.8949,0,U,46810,999,30880,.18885E-3,.2876E-4,0
KSM1-C,2020-081B,2026-06-18T17:30:17.203392,15.26760950,.0003332,36.8962,49.4211,257.2660,102.7717,0,U,46906,999,30940,.25368E-3,.674E-4,0
KSM1-D,2020-081C,2026-06-18T17:35:40.775712,15.24739247,.0005184,36.8968,58.4380,273.9325,86.0831,0,U,46907,999,30933,.25359E-3,.6335E-4,0
KSM1-A,2020-081H,2026-06-18T16:01:50.505024,15.25979211,.0004487,36.8974,52.2045,312.6075,47.4295,0,U,46912,999,30940,.27772E-3,.7215E-4,0
R2,2020-081J,2026-06-18T08:42:02.653344,15.25440507,.0009138,36.8985,54.0733,291.7931,68.1846,0,U,46913,999,31216,.22094E-3,.5629E-4,0
KSM1-B,2020-081K,2026-06-18T17:40:58.048608,15.24524812,.0006842,36.9024,59.0241,290.5684,69.4331,0,U,46914,999,31242,.19371E-3,.4784E-4,0
GONETS-M 20,2020-091A,2026-06-18T16:42:55.331136,12.42893426,.0021267,82.5053,301.4972,174.6281,185.5031,0,U,47227,999,25126,-.15922E-3,-.12E-6,0
GONETS-M 21,2020-091B,2026-06-18T18:01:12.557856,12.42886784,.0014848,82.4977,300.1695,187.3887,172.6976,0,U,47228,999,25126,.30274E-3,.52E-6,0
GONETS-M 22,2020-091C,2026-06-18T17:22:27.799968,12.42892630,.0022203,82.5035,301.0856,170.0041,190.1485,0,U,47229,999,25121,-.19562E-3,-.17E-6,0
CUBEL,2021-006AM,2026-06-18T09:29:26.117088,15.41271823,.0007338,97.2326,219.9679,158.0430,202.1133,0,U,47448,999,29994,.37002E-3,.15337E-3,0
ARKTIKA-M 1,2021-016A,2026-06-17T11:46:36.471360,2.00622504,.72885287,63.2922,57.5948,269.9420,14.6012,0,U,47719,999,3879,0,-.21E-5,0
STARLINK-2342,2021-021Z,2026-06-18T18:00:02.000160,15.81472431,.0001653,53.1540,140.2384,126.8726,199.7686,0,U,47883,999,595,.71936E-3,.147785E-2,0
GRUS-1B,2021-022C,2026-06-18T17:05:55.796640,14.98887440,.001535,97.5400,52.8625,322.3448,37.6699,0,U,47934,999,28612,.26951E-4,.269E-5,0
UNISAT-7,2021-022P,2026-06-18T11:00:21.876192,15.40496251,.0011039,97.3887,74.3961,74.9006,285.3461,0,U,47945,999,29005,.27811E-3,.11219E-3,0
GLOBAL-9,2021-023G,2026-06-18T13:05:01.779936,15.46654442,.0004632,44.9804,242.8949,324.7391,35.3192,0,U,47971,999,29515,.33668E-3,.16855E-3,0
AII-BRAVO,2021-034C,2026-06-18T14:50:47.897088,15.03492272,.0004101,97.5627,224.4966,251.9585,108.1194,0,U,48270,999,27983,.24189E-3,.3238E-4,0
TYVAK-182A,2021-034D,2026-06-18T03:03:33.693984,15.06170060,.0005011,97.5711,228.0285,338.7794,21.3225,0,U,48271,999,27997,.24494E-3,.3526E-4,0
CSS (TIANHE),2021-035A,2026-06-18T15:22:31.365120,15.60865815,.0007393,41.4698,313.1563,89.7145,270.4541,0,U,48274,999,29339,.21791E-3,.1846E-3,0
TYVAK-0130,2021-041BF,2026-06-18T00:38:25.584000,15.27570050,.00103168,52.9943,22.1876,164.5906,195.5407,0,U,48606,999,28051,.19607844E-3,.5014E-4,0
HAIYANG-2D,2021-043A,2026-06-18T17:43:15.762432,13.83370644,.0011464,66.0001,300.8369,268.7437,91.2318,0,U,48621,999,25676,.25386E-4,-.53E-6,0
2021-050D,2021-050D,2026-06-18T17:09:42.118848,15.23343424,.0003953,97.3336,245.7160,253.7148,106.3654,0,U,48843,999,27919,.19508E-3,.4565E-4,0
TYVAK-0173,2021-059P,2026-06-18T16:23:53.822112,14.81894962,.000995,96.0085,245.6680,35.2090,324.9783,0,U,48892,999,26846,.17255E-3,.1334E-4,0
MANDRAKE 2 ABLE,2021-059AE,2026-06-18T01:47:48.742080,15.55018626,.0004309,97.7030,358.9265,2.7874,357.3403,0,U,48907,999,27726,.2627E-3,.17535E-3,0
MANDRAKE 2 BAKER,2021-059AF,2026-06-18T07:47:36.557952,15.59611646,.0002781,97.7003,2.0744,2.0400,358.0867,0,U,48908,999,27747,.28898E-3,.22916E-3,0
